{"type": "FeatureCollection", "features": [ {"type": "Feature", "properties": {"norad_id": 34609, "name": "COSMOS 2251 DEB", "group": "cosmos-2251-debris", "lat": -67.14116592461248, "lon": 74.627324841762, "alt_km": 762.3615619290067, "timestamp": "2025-12-06T07:31:40.630466+00:00", "meta": {"OBJECT_NAME": "COSMOS 2251 DEB", "OBJECT_ID": "1993-036WE", "EPOCH": "2025-12-04T19:02:52.255968", "MEAN_MOTION": 14.21747967, "ECCENTRICITY": 0.01445731, "INCLINATION": 73.7322, "RA_OF_ASC_NODE": 121.2437, "ARG_OF_PERICENTER": 342.0738, "MEAN_ANOMALY": 88.7108, "EPHEMERIS_TYPE": 0, "CLASSIFICATION_TYPE": "U", "NORAD_CAT_ID": 34609, "ELEMENT_SET_NO": 999, "REV_AT_EPOCH": 86519, "BSTAR": 0.0011594566, "MEAN_MOTION_DOT": 2.808e-05, "MEAN_MOTION_DDOT": 0}, "tle": {"line1": "1 34609U 93036WE  25338.79366037  .00002808  00000+0  11595-2 0  9995", "line2": "2 34609  73.7322 121.2437 0144573 342.0738  88.7108 14.21747967865198"}}, "geometry": {"type": "Point", "coordinates": [74.627324841762, -67.14116592461248]}}, {"type": "Feature", "properties": {"norad_id": 34610, "name": "COSMOS 2251 DEB", "group": "cosmos-2251-debris", "lat": 68.54257403797445, "lon": -39.60472485572912, "alt_km": 749.0681810203287, "timestamp": "2025-12-06T07:31:40.630476+00:00", "meta": {"OBJECT_NAME": "COSMOS 2251 DEB", "OBJECT_ID": "1993-036WF", "EPOCH": "2025-12-04T12:31:16.375584", "MEAN_MOTION": 14.06957866, "ECCENTRICITY": 0.0180026, "INCLINATION": 74.0195, "RA_OF_ASC_NODE": 276.7285, "ARG_OF_PERICENTER": 49.1144, "MEAN_ANOMALY": 312.5431, "EPHEMERIS_TYPE": 0, "CLASSIFICATION_TYPE": "U", "NORAD_CAT_ID": 34610, "ELEMENT_SET_NO": 999, "REV_AT_EPOCH": 85444, "BSTAR": 0.0044727, "MEAN_MOTION_DOT": 8.631e-05, "MEAN_MOTION_DDOT": 0}, "tle": {"line1": "1 34610U 93036WF  25338.52171731  .00008631  00000+0  44727-2 0  9996", "line2": "2 34610  74.0195 276.7285 0180026  49.1144 312.5431 14.06957866854445"}}, "geometry": {"type": "Point", "coordinates": [-39.60472485572912, 68.54257403797445]}}, {"type": "Feature", "properties": {"norad_id": 34611, "name": "COSMOS 2251 DEB", "group": "cosmos-2251-debris", "lat": 49.89842961984694, "lon": -86.44797380649254, "alt_km": 643.9309864247471, "timestamp": "2025-12-06T07:31:40.630486+00:00", "meta": {"OBJECT_NAME": "COSMOS 2251 DEB", "OBJECT_ID": "1993-036WG", "EPOCH": "2025-12-05T05:06:10.374048", "MEAN_MOTION": 14.69267998, "ECCENTRICITY": 0.00236594, "INCLINATION": 74.0531, "RA_OF_ASC_NODE": 115.5299, "ARG_OF_PERICENTER": 159.6768, "MEAN_ANOMALY": 266.1828, "EPHEMERIS_TYPE": 0, "CLASSIFICATION_TYPE": "U", "NORAD_CAT_ID": 34611, "ELEMENT_SET_NO": 999, "REV_AT_EPOCH": 88280, "BSTAR": 0.0036227135, "MEAN_MOTION_DOT": 0.00021498, "MEAN_MOTION_DDOT": 0}, "tle": {"line1": "1 34611U 93036WG  25339.21262007  .00021498  00000+0  36227-2 0  9993", "line2": "2 34611  74.0531 115.5299 0023659 159.6768 266.1828 14.69267998882806"}}, "geometry": {"type": "Point", "coordinates": [-86.44797380649254, 49.89842961984694]}}, {"type": "Feature", "properties": {"norad_id": 34613, "name": "COSMOS 2251 DEB", "group": "cosmos-2251-debris", "lat": 48.96338686900442, "lon": 90.92688644245482, "alt_km": 720.2188566801615, "timestamp": "2025-12-06T07:31:40.630496+00:00", "meta": {"OBJECT_NAME": "COSMOS 2251 DEB", "OBJECT_ID": "1993-036WJ", "EPOCH": "2025-12-04T15:21:45.376128", "MEAN_MOTION": 14.26359241, "ECCENTRICITY": 0.0110107, "INCLINATION": 73.9637, "RA_OF_ASC_NODE": 293.2595, "ARG_OF_PERICENTER": 127.2054, "MEAN_ANOMALY": 50.7349, "EPHEMERIS_TYPE": 0, "CLASSIFICATION_TYPE": "U", "NORAD_CAT_ID": 34613, "ELEMENT_SET_NO": 999, "REV_AT_EPOCH": 86347, "BSTAR": 0.0024688, "MEAN_MOTION_DOT": 6.304e-05, "MEAN_MOTION_DDOT": 0}, "tle": {"line1": "1 34613U 93036WJ  25338.64010852  .00006304  00000+0  24688-2 0  9997", "line2": "2 34613  73.9637 293.2595 0110107 127.2054  50.7349 14.26359241863473"}}, "geometry": {"type": "Point", "coordinates": [90.92688644245482, 48.96338686900442]}}, {"type": "Feature", "properties": {"norad_id": 34614, "name": "COSMOS 2251 DEB", "group": "cosmos-2251-debris", "lat": -63.96729639182674, "lon": -148.24291923610295, "alt_km": 865.9542854814254, "timestamp": "2025-12-06T07:31:40.630506+00:00", "meta": {"OBJECT_NAME": "COSMOS 2251 DEB", "OBJECT_ID": "1993-036WK", "EPOCH": "2025-12-04T20:43:04.520064", "MEAN_MOTION": 14.17169673, "ECCENTRICITY": 0.0197875, "INCLINATION": 73.8788, "RA_OF_ASC_NODE": 358.0566, "ARG_OF_PERICENTER": 353.1012, "MEAN_ANOMALY": 61.3249, "EPHEMERIS_TYPE": 0, "CLASSIFICATION_TYPE": "U", "NORAD_CAT_ID": 34614, "ELEMENT_SET_NO": 999, "REV_AT_EPOCH": 84655, "BSTAR": 0.0098527, "MEAN_MOTION_DOT": 0.00024126, "MEAN_MOTION_DDOT": 0}, "tle": {"line1": "1 34614U 93036WK  25338.86324676  .00024126  00000+0  98527-2 0  9999", "line2": "2 34614  73.8788 358.0566 0197875 353.1012  61.3249 14.17169673846554"}}, "geometry": {"type": "Point", "coordinates": [-148.24291923610295, -63.96729639182674]}}, {"type": "Feature", "properties": {"norad_id": 34615, "name": "COSMOS 2251 DEB", "group": "cosmos-2251-debris", "lat": -29.52770338206669, "lon": 133.79906465068396, "alt_km": 770.6154602218649, "timestamp": "2025-12-06T07:31:40.630517+00:00", "meta": {"OBJECT_NAME": "COSMOS 2251 DEB", "OBJECT_ID": "1993-036WL", "EPOCH": "2025-12-04T16:18:53.961408", "MEAN_MOTION": 13.52198359, "ECCENTRICITY": 0.0402058, "INCLINATION": 74.0053, "RA_OF_ASC_NODE": 307.0689, "ARG_OF_PERICENTER": 215.9786, "MEAN_ANOMALY": 324.3399, "EPHEMERIS_TYPE": 0, "CLASSIFICATION_TYPE": "U", "NORAD_CAT_ID": 34615, "ELEMENT_SET_NO": 999, "REV_AT_EPOCH": 82706, "BSTAR": 0.00019137, "MEAN_MOTION_DOT": 1.87e-06, "MEAN_MOTION_DDOT": 0}, "tle": {"line1": "1 34615U 93036WL  25338.67979122  .00000187  00000+0  19137-3 0  9993", "line2": "2 34615  74.0053 307.0689 0402058 215.9786 324.3399 13.52198359827062"}}, "geometry": {"type": "Point", "coordinates": [133.79906465068396, -29.52770338206669]}}, {"type": "Feature", "properties": {"norad_id": 34619, "name": "COSMOS 2251 DEB", "group": "cosmos-2251-debris", "lat": 39.56992452600219, "lon": -134.0355714361342, "alt_km": 677.759388712645, "timestamp": "2025-12-06T07:31:40.630527+00:00", "meta": {"OBJECT_NAME": "COSMOS 2251 DEB", "OBJECT_ID": "1993-036WQ", "EPOCH": "2025-12-04T09:26:21.170112", "MEAN_MOTION": 14.64612654, "ECCENTRICITY": 0.009457, "INCLINATION": 74.0441, "RA_OF_ASC_NODE": 215.9771, "ARG_OF_PERICENTER": 312.7679, "MEAN_ANOMALY": 46.556, "EPHEMERIS_TYPE": 0, "CLASSIFICATION_TYPE": "U", "NORAD_CAT_ID": 34619, "ELEMENT_SET_NO": 999, "REV_AT_EPOCH": 89176, "BSTAR": 0.0004408, "MEAN_MOTION_DOT": 2.467e-05, "MEAN_MOTION_DDOT": 0}, "tle": {"line1": "1 34619U 93036WQ  25338.39330058  .00002467  00000+0  44080-3 0  9993", "line2": "2 34619  74.0441 215.9771 0094570 312.7679  46.5560 14.64612654891763"}}, "geometry": {"type": "Point", "coordinates": [-134.0355714361342, 39.56992452600219]}}, {"type": "Feature", "properties": {"norad_id": 34620, "name": "COSMOS 2251 DEB", "group": "cosmos-2251-debris", "lat": -71.54399462783832, "lon": 172.6088419091172, "alt_km": 678.8943739602664, "timestamp": "2025-12-06T07:31:40.630537+00:00", "meta": {"OBJECT_NAME": "COSMOS 2251 DEB", "OBJECT_ID": "1993-036WR", "EPOCH": "2025-12-05T02:04:06.460896", "MEAN_MOTION": 14.48898635, "ECCENTRICITY": 0.00816293, "INCLINATION": 74.0517, "RA_OF_ASC_NODE": 233.8682, "ARG_OF_PERICENTER": 272.0353, "MEAN_ANOMALY": 87.146, "EPHEMERIS_TYPE": 0, "CLASSIFICATION_TYPE": "U", "NORAD_CAT_ID": 34620, "ELEMENT_SET_NO": 999, "REV_AT_EPOCH": 86716, "BSTAR": 0.0051080083, "MEAN_MOTION_DOT": 0.00020196, "MEAN_MOTION_DDOT": 0}, "tle": {"line1": "1 34620U 93036WR  25339.08618589  .00020196  00000+0  51080-2 0  9996", "line2": "2 34620  74.0517 233.8682 0081629 272.0353  87.1460 14.48898635867161"}}, "geometry": {"type": "Point", "coordinates": [172.6088419091172, -71.54399462783832]}}, {"type": "Feature", "properties": {"norad_id": 34622, "name": "COSMOS 2251 DEB", "group": "cosmos-2251-debris", "lat": -1.3777909707879223, "lon": 138.93686348290402, "alt_km": 877.2530011205799, "timestamp": "2025-12-06T07:31:40.630547+00:00", "meta": {"OBJECT_NAME": "COSMOS 2251 DEB", "OBJECT_ID": "1993-036WT", "EPOCH": "2025-12-04T16:40:05.862720", "MEAN_MOTION": 14.21990475, "ECCENTRICITY": 0.01040326, "INCLINATION": 74.0414, "RA_OF_ASC_NODE": 321.4463, "ARG_OF_PERICENTER": 45.9184, "MEAN_ANOMALY": 129.1495, "EPHEMERIS_TYPE": 0, "CLASSIFICATION_TYPE": "U", "NORAD_CAT_ID": 34622, "ELEMENT_SET_NO": 999, "REV_AT_EPOCH": 86345, "BSTAR": 0.0018976725, "MEAN_MOTION_DOT": 4.407e-05, "MEAN_MOTION_DDOT": 0}, "tle": {"line1": "1 34622U 93036WT  25338.69451230  .00004407  00000+0  18977-2 0  9997", "line2": "2 34622  74.0414 321.4463 0104032  45.9184 129.1495 14.21990475863452"}}, "geometry": {"type": "Point", "coordinates": [138.93686348290402, -1.3777909707879223]}}, {"type": "Feature", "properties": {"norad_id": 34626, "name": "COSMOS 2251 DEB", "group": "cosmos-2251-debris", "lat": -66.98154225379851, "lon": -65.93022064896573, "alt_km": 675.3767204885698, "timestamp": "2025-12-06T07:31:40.630558+00:00", "meta": {"OBJECT_NAME": "COSMOS 2251 DEB", "OBJECT_ID": "1993-036WX", "EPOCH": "2025-12-05T02:48:48.674592", "MEAN_MOTION": 14.7205533, "ECCENTRICITY": 0.00262828, "INCLINATION": 74.0478, "RA_OF_ASC_NODE": 338.7128, "ARG_OF_PERICENTER": 69.1084, "MEAN_ANOMALY": 0.1203, "EPHEMERIS_TYPE": 0, "CLASSIFICATION_TYPE": "U", "NORAD_CAT_ID": 34626, "ELEMENT_SET_NO": 999, "REV_AT_EPOCH": 89032, "BSTAR": 0.0019252524, "MEAN_MOTION_DOT": 0.00012157, "MEAN_MOTION_DDOT": 0}, "tle": {"line1": "1 34626U 93036WX  25339.11723003  .00012157  00000+0  19253-2 0  9998", "line2": "2 34626  74.0478 338.7128 0026282  69.1084   0.1203 14.72055330890321"}}, "geometry": {"type": "Point", "coordinates": [-65.93022064896573, -66.98154225379851]}}]}